{
  "norad_id": 63142,
  "name": "STARLINK-11503 [DTC]",
  "history": [
    {
      "epoch": "2026-03-28T13:17:53.221344Z",
      "apogee_km": 358.80670900294444,
      "perigee_km": 353.36814935393977,
      "latitude_deg": -1.0976342610312594e-05,
      "longitude_deg": 111.14706264385225,
      "height_km": 355.5933395847937,
      "semi_major_axis_km": 6734.224429178442,
      "eccentricity": 0.0004038,
      "inclination_deg": 43.0015,
      "raan_deg": 136.5917,
      "arg_perigee_deg": 275.6655,
      "mean_anomaly_deg": 84.3752,
      "mean_motion_rev_day": 15.7098263
    }
  ]
}